IRIDIUM 57 [-]          
1 25273U 98019B   23267.44109876  .00000621  00000+0  21167-3 0  9993
2 25273  86.3957  49.7815 0002084  92.1166 268.0269 14.34904890334164
IRIDIUM 69 [-]          
1 25319U 98026A   23267.36368872  .00000937  00000+0  29414-3 0  9999
2 25319  86.4048   1.9288 0001223  16.3765 343.7473 14.39573573332125
IRIDIUM 71 [-]          
1 25320U 98026B   23267.35432622  .00000762  00000+0  23640-3 0  9996
2 25320  86.4040 356.7730 0003225  52.5026 307.6465 14.39913204332633
IRIDIUM 82 [-]          
1 25467U 98051A   23267.46000615  .00017755  00000+0  10519-2 0  9991
2 25467  86.3929  51.0951 0149929 114.5706 247.1237 15.02200216328347
IRIDIUM 2 [-]           
1 25527U 98066A   23267.54357822  .00035129  00000+0  87314-3 0  9991
2 25527  85.5170 111.1526 0003402 279.8593  80.2275 15.40146785366435
